SKYSAT-C1               
1 41601U 16040C   26200.32193378  .00004607  00000+0  13027-3 0  9991
2 41601  96.9550 230.3079 0000501 204.4557 155.6664 15.36787797562809
LAPAN-A3                
1 41603U 16040E   26200.30161674  .00001656  00000+0  53777-4 0  9993
2 41603  97.1508 195.3990 0008282 257.9571 102.0744 15.33292390559732
GAOFEN-3                
1 41727U 16049A   26200.27533730  .00000135  00000+0  54159-4 0  9997
2 41727  98.4018 207.5778 0001770  82.4935 277.6456 14.42219375523279
SKYSAT-C4               
1 41771U 16058B   26200.30766369  .00009565  00000+0  17513-3 0  9994
2 41771  96.9170 220.7540 0003540 112.6543 247.5084 15.49519373550443
SKYSAT-C5               
1 41772U 16058C   26200.06061523  .00003826  00000+0  11948-3 0  9998
2 41772  97.0451 239.2674 0002954 151.0084 209.1324 15.33749470548631
SKYSAT-C2               
1 41773U 16058D   26200.04838939  .00006875  00000+0  15928-3 0  9999
2 41773  97.0161 220.9571 0000917 329.4128  30.7067 15.42733343549961
SKYSAT-C3               
1 41774U 16058E   26200.03399711  .00013616  00000+0  21335-3 0  9999
2 41774  96.8994 229.6808 0002737 128.8883 231.2616 15.53816943551054
ALSAT-1B                
1 41785U 16059C   26200.31864918  .00000045  00000+0  14497-4 0  9993
2 41785  97.7756 207.6967 0010561 118.1566 242.0711 14.72295568525307
PATHFINDER 1            
1 41787U 16059E   26200.24744522  .00000269  00000+0  55020-4 0  9990
2 41787  97.8179 198.0787 0029938 103.4347 257.0198 14.67695757524418
SCATSAT 1               
1 41790U 16059H   26200.13411160  .00000626  00000+0  88825-4 0  9997
2 41790  98.1175 264.2277 0055493 144.0777 216.4185 14.79592832106318
GOKTURK 1A              
1 41875U 16073A   26200.25856675  .00000137  00000+0  35920-4 0  9999
2 41875  98.1204  94.4242 0001443  81.1710 278.9655 14.62794769513518
RESOURCESAT-2A          
1 41877U 16074A   26200.30594456  .00000069  00000+0  51430-4 0  9992
2 41877  98.7515 273.5460 0002125  19.2270 340.8987 14.21609806498863
CARTOSAT-2D             
1 41948U 17008A   26200.29985215  .00002205  00000+0  10764-3 0  9992
2 41948  97.4084 259.0028 0006270 127.8351 232.3452 15.19301911522458
SENTINEL-2B             
1 42063U 17013A   26200.30541569  .00000048  00000+0  34863-4 0  9999
2 42063  98.5679 274.6251 0001230  94.9305 265.2019 14.30816105489234
CARTOSAT-2E             
1 42767U 17036C   26200.31769933  .00001531  00000+0  75814-4 0  9992
2 42767  97.4252 259.5873 0003652 173.6786 186.4496 15.19269741503023
FORMOSAT-5              
1 42920U 17049A   26200.25862973  .00000033  00000+0  19367-4 0  9995
2 42920  98.2243 274.8543 0011048 351.1804   8.9195 14.50908477471320
SENTINEL-5P             
1 42969U 17064A   26200.27295346  .00000003  00000+0  22559-4 0  9995
2 42969  98.7929 142.1773 0001171  93.9960 266.1350 14.19523651454112
SKYSAT-C11              
1 42987U 17068A   26200.22028465  .00017324  00000+0  22012-3 0  9997
2 42987  97.4391 350.4914 0001423 153.1659 206.9671 15.59466582488238
SKYSAT-C10              
1 42988U 17068B   26199.91074610  .00005899  00000+0  17528-3 0  9994
2 42988  97.4546 337.0854 0001517 111.4677 248.6728 15.35160800487228
SKYSAT-C9               
1 42989U 17068C   26199.90794159  .00006998  00000+0  16462-3 0  9998
2 42989  97.4467 338.3256 0008323  32.6889 327.4872 15.42268411487649
SKYSAT-C8               
1 42990U 17068D   26199.89838995  .00005624  00000+0  15505-3 0  9997
2 42990  97.4564 336.9950 0001259 105.1163 255.0221 15.37534183487185
SKYSAT-C7               
1 42991U 17068E   26199.89299090  .00005570  00000+0  15377-3 0  9992
2 42991  97.4574 337.9814 0005367   8.6859 351.4478 15.37483893487243
SKYSAT-C6               
1 42992U 17068F   26199.91074246  .00004915  00000+0  15086-3 0  9999
2 42992  97.4612 337.8361 0005013  79.9039 280.2769 15.34206948487188
CARTOSAT-2F             
1 43111U 18004A   26200.28458486  .00001529  00000+0  75908-4 0  9997
2 43111  97.4767 259.6028 0002626 127.4690 232.6784 15.19190163472202
GAOFEN-1 02             
1 43259U 18031A   26200.28630986  .00000603  00000+0  93983-4 0  9992
2 43259  98.0506 262.7209 0001492 258.6789 101.4253 14.76476209447436
GAOFEN-1 03             
1 43260U 18031B   26200.33220448  .00000303  00000+0  50963-4 0  9996
2 43260  98.0500 262.6213 0002076   3.0477 357.0744 14.76465602447430
GAOFEN-1 04             
1 43262U 18031D   26200.30793521 -.00000003  00000+0  70186-5 0  9990
2 43262  98.0507 262.7922 0000966  51.8968 308.2329 14.76440253447420
SENTINEL-3B             
1 43437U 18039A   26200.16892100  .00000040  00000+0  34722-4 0  9994
2 43437  98.6233 267.2398 0001236 119.0606 241.0698 14.26737055428684
GAOFEN-5 01             
1 43461U 18043A   26199.91637947  .00000139  00000+0  38600-4 0  9990
2 43461  98.4592 172.1733 0001874  24.4451 335.6837 14.60624782436324
GAOFEN-6                
1 43484U 18048A   26200.33067696 -.00000001  00000+0  74661-5 0  9994
2 43484  98.0949 263.0423 0012036  70.0671 290.1834 14.76385126438136
